{"type": "FeatureCollection", "features": [ {"type": "Feature", "properties": {"norad_id": 35902, "name": "COSMOS 2251 DEB", "group": "cosmos-2251-debris", "lat": -65.70008643723948, "lon": 113.03813286087822, "alt_km": 843.9128851023861, "timestamp": "2025-12-02T07:10:09.513226+00:00", "meta": {"OBJECT_NAME": "COSMOS 2251 DEB", "OBJECT_ID": "1993-036AUR", "EPOCH": "2025-12-01T03:04:00.207552", "MEAN_MOTION": 14.26791124, "ECCENTRICITY": 0.01016301, "INCLINATION": 73.9836, "RA_OF_ASC_NODE": 255.6555, "ARG_OF_PERICENTER": 12.6385, "MEAN_ANOMALY": 347.7274, "EPHEMERIS_TYPE": 0, "CLASSIFICATION_TYPE": "U", "NORAD_CAT_ID": 35902, "ELEMENT_SET_NO": 999, "REV_AT_EPOCH": 60964, "BSTAR": 0.0014097892, "MEAN_MOTION_DOT": 3.584e-05, "MEAN_MOTION_DDOT": 0}, "tle": {"line1": "1 35902U 93036AUR 25335.12778018  .00003584  00000+0  14098-2 0  9995", "line2": "2 35902  73.9836 255.6555 0101630  12.6385 347.7274 14.26791124609642"}}, "geometry": {"type": "Point", "coordinates": [113.03813286087822, -65.70008643723948]}}, {"type": "Feature", "properties": {"norad_id": 35905, "name": "COSMOS 2251 DEB", "group": "cosmos-2251-debris", "lat": 19.800434694591708, "lon": -122.07814430245925, "alt_km": 544.5338083175639, "timestamp": "2025-12-02T07:10:09.513236+00:00", "meta": {"OBJECT_NAME": "COSMOS 2251 DEB", "OBJECT_ID": "1993-036AUU", "EPOCH": "2025-12-01T02:14:33.216000", "MEAN_MOTION": 14.98750731, "ECCENTRICITY": 0.00911395, "INCLINATION": 74.0327, "RA_OF_ASC_NODE": 234.4496, "ARG_OF_PERICENTER": 317.2185, "MEAN_ANOMALY": 42.1931, "EPHEMERIS_TYPE": 0, "CLASSIFICATION_TYPE": "U", "NORAD_CAT_ID": 35905, "ELEMENT_SET_NO": 999, "REV_AT_EPOCH": 88408, "BSTAR": 0.00064547765, "MEAN_MOTION_DOT": 8.44e-05, "MEAN_MOTION_DDOT": 0}, "tle": {"line1": "1 35905U 93036AUU 25335.09344000  .00008440  00000+0  64548-3 0  9996", "line2": "2 35905  74.0327 234.4496 0091139 317.2185  42.1931 14.98750731884082"}}, "geometry": {"type": "Point", "coordinates": [-122.07814430245925, 19.800434694591708]}}, {"type": "Feature", "properties": {"norad_id": 35959, "name": "COSMOS 2251 DEB", "group": "cosmos-2251-debris", "lat": 59.88188373578237, "lon": 0.7557747727897974, "alt_km": 756.8750373939492, "timestamp": "2025-12-02T07:10:09.513246+00:00", "meta": {"OBJECT_NAME": "COSMOS 2251 DEB", "OBJECT_ID": "1993-036AUZ", "EPOCH": "2025-11-30T16:21:59.984064", "MEAN_MOTION": 14.34121846, "ECCENTRICITY": 0.00211433, "INCLINATION": 74.0322, "RA_OF_ASC_NODE": 334.1387, "ARG_OF_PERICENTER": 58.5028, "MEAN_ANOMALY": 301.8186, "EPHEMERIS_TYPE": 0, "CLASSIFICATION_TYPE": "U", "NORAD_CAT_ID": 35959, "ELEMENT_SET_NO": 999, "REV_AT_EPOCH": 84755, "BSTAR": 0.00012517594, "MEAN_MOTION_DOT": 3.25e-06, "MEAN_MOTION_DDOT": 0}, "tle": {"line1": "1 35959U 93036AUZ 25334.68194426  .00000325  00000+0  12518-3 0  9998", "line2": "2 35959  74.0322 334.1387 0021143  58.5028 301.8186 14.34121846847559"}}, "geometry": {"type": "Point", "coordinates": [0.7557747727897974, 59.88188373578237]}}, {"type": "Feature", "properties": {"norad_id": 35961, "name": "COSMOS 2251 DEB", "group": "cosmos-2251-debris", "lat": -4.839858099506304, "lon": -138.85718451130347, "alt_km": 1011.9956147377097, "timestamp": "2025-12-02T07:10:09.513257+00:00", "meta": {"OBJECT_NAME": "COSMOS 2251 DEB", "OBJECT_ID": "1993-036AVB", "EPOCH": "2025-11-29T09:08:47.173056", "MEAN_MOTION": 14.05319505, "ECCENTRICITY": 0.01924432, "INCLINATION": 73.9254, "RA_OF_ASC_NODE": 227.671, "ARG_OF_PERICENTER": 163.9834, "MEAN_ANOMALY": 196.7506, "EPHEMERIS_TYPE": 0, "CLASSIFICATION_TYPE": "U", "NORAD_CAT_ID": 35961, "ELEMENT_SET_NO": 999, "REV_AT_EPOCH": 62494, "BSTAR": 0.00062484461, "MEAN_MOTION_DOT": 1.171e-05, "MEAN_MOTION_DDOT": 0}, "tle": {"line1": "1 35961U 93036AVB 25333.38110154  .00001171  00000+0  62484-3 0  9990", "line2": "2 35961  73.9254 227.6710 0192443 163.9834 196.7506 14.05319505624940"}}, "geometry": {"type": "Point", "coordinates": [-138.85718451130347, -4.839858099506304]}}, {"type": "Feature", "properties": {"norad_id": 35979, "name": "COSMOS 2251 DEB", "group": "cosmos-2251-debris", "lat": 12.122197096011615, "lon": 75.27632334530372, "alt_km": 676.436140267786, "timestamp": "2025-12-02T07:10:09.513267+00:00", "meta": {"OBJECT_NAME": "COSMOS 2251 DEB", "OBJECT_ID": "1993-036AVV", "EPOCH": "2025-12-01T13:18:58.193280", "MEAN_MOTION": 14.74392399, "ECCENTRICITY": 0.00586959, "INCLINATION": 74.0124, "RA_OF_ASC_NODE": 260.2607, "ARG_OF_PERICENTER": 35.0527, "MEAN_ANOMALY": 144.9756, "EPHEMERIS_TYPE": 0, "CLASSIFICATION_TYPE": "U", "NORAD_CAT_ID": 35979, "ELEMENT_SET_NO": 999, "REV_AT_EPOCH": 88468, "BSTAR": 0.0011768577, "MEAN_MOTION_DOT": 8.001e-05, "MEAN_MOTION_DDOT": 0}, "tle": {"line1": "1 35979U 93036AVV 25335.55484020  .00008001  00000+0  11769-2 0  9994", "line2": "2 35979  74.0124 260.2607 0058695  35.0527 144.9756 14.74392399884682"}}, "geometry": {"type": "Point", "coordinates": [75.27632334530372, 12.122197096011615]}}, {"type": "Feature", "properties": {"norad_id": 35980, "name": "COSMOS 2251 DEB", "group": "cosmos-2251-debris", "lat": -71.81678526742782, "lon": 24.21571199720952, "alt_km": 666.7375582366549, "timestamp": "2025-12-02T07:10:09.513276+00:00", "meta": {"OBJECT_NAME": "COSMOS 2251 DEB", "OBJECT_ID": "1993-036AVW", "EPOCH": "2025-11-29T05:33:52.337664", "MEAN_MOTION": 14.59000915, "ECCENTRICITY": 0.00538944, "INCLINATION": 73.9117, "RA_OF_ASC_NODE": 148.6193, "ARG_OF_PERICENTER": 284.9458, "MEAN_ANOMALY": 74.5743, "EPHEMERIS_TYPE": 0, "CLASSIFICATION_TYPE": "U", "NORAD_CAT_ID": 35980, "ELEMENT_SET_NO": 999, "REV_AT_EPOCH": 61289, "BSTAR": 0.0013176676, "MEAN_MOTION_DOT": 6.287e-05, "MEAN_MOTION_DDOT": 0}, "tle": {"line1": "1 35980U 93036AVW 25333.23185576  .00006287  00000+0  13177-2 0  9992", "line2": "2 35980  73.9117 148.6193 0053894 284.9458  74.5743 14.59000915612896"}}, "geometry": {"type": "Point", "coordinates": [24.21571199720952, -71.81678526742782]}}, {"type": "Feature", "properties": {"norad_id": 35982, "name": "COSMOS 2251 DEB", "group": "cosmos-2251-debris", "lat": 50.15818519583486, "lon": 26.948586890544455, "alt_km": 638.125163669345, "timestamp": "2025-12-02T07:10:09.513287+00:00", "meta": {"OBJECT_NAME": "COSMOS 2251 DEB", "OBJECT_ID": "1993-036AVY", "EPOCH": "2025-11-30T20:27:27.935424", "MEAN_MOTION": 14.62651561, "ECCENTRICITY": 0.0064034, "INCLINATION": 74.0589, "RA_OF_ASC_NODE": 9.6832, "ARG_OF_PERICENTER": 79.6469, "MEAN_ANOMALY": 281.1908, "EPHEMERIS_TYPE": 0, "CLASSIFICATION_TYPE": "U", "NORAD_CAT_ID": 35982, "ELEMENT_SET_NO": 999, "REV_AT_EPOCH": 85992, "BSTAR": 0.00050495366, "MEAN_MOTION_DOT": 2.615e-05, "MEAN_MOTION_DDOT": 0}, "tle": {"line1": "1 35982U 93036AVY 25334.85240666  .00002615  00000+0  50495-3 0  9991", "line2": "2 35982  74.0589   9.6832 0064034  79.6469 281.1908 14.62651561859927"}}, "geometry": {"type": "Point", "coordinates": [26.948586890544455, 50.15818519583486]}}, {"type": "Feature", "properties": {"norad_id": 35987, "name": "COSMOS 2251 DEB", "group": "cosmos-2251-debris", "lat": 58.91595434486174, "lon": 14.499983081756474, "alt_km": 722.2224810935986, "timestamp": "2025-12-02T07:10:09.513297+00:00", "meta": {"OBJECT_NAME": "COSMOS 2251 DEB", "OBJECT_ID": "1993-036AWD", "EPOCH": "2025-12-01T10:54:45.006048", "MEAN_MOTION": 14.43015331, "ECCENTRICITY": 0.00459843, "INCLINATION": 73.9994, "RA_OF_ASC_NODE": 347.6475, "ARG_OF_PERICENTER": 116.8368, "MEAN_ANOMALY": 243.7501, "EPHEMERIS_TYPE": 0, "CLASSIFICATION_TYPE": "U", "NORAD_CAT_ID": 35987, "ELEMENT_SET_NO": 999, "REV_AT_EPOCH": 60902, "BSTAR": 0.00096989757, "MEAN_MOTION_DOT": 3.265e-05, "MEAN_MOTION_DDOT": 0}, "tle": {"line1": "1 35987U 93036AWD 25335.45468757  .00003265  00000+0  96990-3 0  9998", "line2": "2 35987  73.9994 347.6475 0045984 116.8368 243.7501 14.43015331609028"}}, "geometry": {"type": "Point", "coordinates": [14.499983081756474, 58.91595434486174]}}, {"type": "Feature", "properties": {"norad_id": 35989, "name": "COSMOS 2251 DEB", "group": "cosmos-2251-debris", "lat": -25.9586496843198, "lon": -64.97404379664233, "alt_km": 764.6175361780643, "timestamp": "2025-12-02T07:10:09.513307+00:00", "meta": {"OBJECT_NAME": "COSMOS 2251 DEB", "OBJECT_ID": "1993-036AWF", "EPOCH": "2025-11-27T07:00:06.233184", "MEAN_MOTION": 14.37066498, "ECCENTRICITY": 0.00214096, "INCLINATION": 74.0374, "RA_OF_ASC_NODE": 312.2392, "ARG_OF_PERICENTER": 38.1471, "MEAN_ANOMALY": 322.1192, "EPHEMERIS_TYPE": 0, "CLASSIFICATION_TYPE": "U", "NORAD_CAT_ID": 35989, "ELEMENT_SET_NO": 999, "REV_AT_EPOCH": 86957, "BSTAR": 0.00024367588, "MEAN_MOTION_DOT": 6.99e-06, "MEAN_MOTION_DDOT": 0}, "tle": {"line1": "1 35989U 93036AWF 25331.29173881  .00000699  00000+0  24368-3 0  9997", "line2": "2 35989  74.0374 312.2392 0021409  38.1471 322.1192 14.37066498869576"}}, "geometry": {"type": "Point", "coordinates": [-64.97404379664233, -25.9586496843198]}}, {"type": "Feature", "properties": {"norad_id": 35993, "name": "COSMOS 2251 DEB", "group": "cosmos-2251-debris", "lat": -51.88347924988327, "lon": -165.64995797169138, "alt_km": 669.4553013995828, "timestamp": "2025-12-02T07:10:09.513317+00:00", "meta": {"OBJECT_NAME": "COSMOS 2251 DEB", "OBJECT_ID": "1993-036AWK", "EPOCH": "2025-11-27T19:35:01.348512", "MEAN_MOTION": 14.65130544, "ECCENTRICITY": 0.00298008, "INCLINATION": 74.0156, "RA_OF_ASC_NODE": 1.5524, "ARG_OF_PERICENTER": 195.1174, "MEAN_ANOMALY": 164.9107, "EPHEMERIS_TYPE": 0, "CLASSIFICATION_TYPE": "U", "NORAD_CAT_ID": 35993, "ELEMENT_SET_NO": 999, "REV_AT_EPOCH": 60224, "BSTAR": 0.00071132597, "MEAN_MOTION_DOT": 3.818e-05, "MEAN_MOTION_DDOT": 0}, "tle": {"line1": "1 35993U 93036AWK 25331.81598783  .00003818  00000+0  71133-3 0  9990", "line2": "2 35993  74.0156   1.5524 0029800 195.1174 164.9107 14.65130544602243"}}, "geometry": {"type": "Point", "coordinates": [-165.64995797169138, -51.88347924988327]}}]}